STRIX-4                 
1 60352U 24137A   26068.65404516  .00020530  00000+0  71820-3 0  9996
2 60352  43.0134 129.8162 0016840   5.2738 354.8289 15.29026223 88766
STARLINK-33620          
1 63069U 25035T   26068.19638544  .00035094  00000+0  12783-2 0  9994
2 63069  43.0016 149.9253 0002195 276.6389  83.4213 15.27589414 59642
